start=new Date('2022-04-30T00:00:00.000Z').valueOf();
sats=[{"COUNTRY_CODE":"US","OBJECT_ID":"2021-115D","EPOCH":"2022-04-29T22:00:00.999936","BSTAR":"-0.00305500000000","REF_FRAME":"TEME","ECCENTRICITY":"0.00019100","FILE":"3421985","MEAN_MOTION_DDOT":"0.0000000000000","TLE_LINE2":"2 49727  53.2189   7.8449 0001910  42.7379   0.0648 15.08852832  3579","SITE":"AFETR","PERIOD":"95.437","MEAN_MOTION":"15.08852832","INCLINATION":"53.2189","NORAD_CAT_ID":"49727","DECAY_DATE":null,"APOAPSIS":"541.027","CENTER_NAME":"EARTH","RCS_SIZE":"LARGE","MEAN_MOTION_DOT":"-0.00048599","TLE_LINE1":"1 49727U 21115D   22119.91667824 -.00048599  00000-0 -30550-2 0  9999","ELEMENT_SET_NO":"999","MEAN_ANOMALY":"0.0648","EPHEMERIS_TYPE":"0","TIME_SYSTEM":"UTC","REV_AT_EPOCH":"357","RA_OF_ASC_NODE":"7.8449","OBJECT_TYPE":"PAYLOAD","CLASSIFICATION_TYPE":"U","MEAN_ELEMENT_THEORY":"SGP4","LAUNCH_DATE":"2021-12-02","OBJECT_NAME":"STARLINK-3242","PERIAPSIS":"538.385","ARG_OF_PERICENTER":"42.7379","SEMIMAJOR_AXIS":"6917.841","GP_ID":"202311664"},{"OBJECT_ID":"2021-115E","COUNTRY_CODE":"US","EPOCH":"2022-04-29T22:00:00.999936","BSTAR":"-0.00182800000000","ECCENTRICITY":"0.00016840","REF_FRAME":"TEME","FILE":"3421985","MEAN_MOTION_DDOT":"0.0000000000000","PERIOD":"95.438","TLE_LINE2":"2 49728  53.2170   7.8497 0001684  57.8839 324.9569 15.08836148  3571","SITE":"AFETR","MEAN_MOTION":"15.08836148","INCLINATION":"53.2170","NORAD_CAT_ID":"49728","DECAY_DATE":null,"APOAPSIS":"540.922","RCS_SIZE":"LARGE","CENTER_NAME":"EARTH","TLE_LINE1":"1 49728U 21115E   22119.91667824 -.00029260  00000-0 -18280-2 0  9990","MEAN_MOTION_DOT":"-0.00029260","ELEMENT_SET_NO":"999","MEAN_ANOMALY":"324.9569","EPHEMERIS_TYPE":"0","TIME_SYSTEM":"UTC","REV_AT_EPOCH":"357","OBJECT_TYPE":"PAYLOAD","RA_OF_ASC_NODE":"7.8497","CLASSIFICATION_TYPE":"U","LAUNCH_DATE":"2021-12-02","OBJECT_NAME":"STARLINK-3240","MEAN_ELEMENT_THEORY":"SGP4","PERIAPSIS":"538.592","ARG_OF_PERICENTER":"57.8839","GP_ID":"202311914","SEMIMAJOR_AXIS":"6917.892"},{"LAUNCH_DATE":"2021-12-02","OBJECT_NAME":"STARLINK-3251","MEAN_ELEMENT_THEORY":"SGP4","CLASSIFICATION_TYPE":"U","ARG_OF_PERICENTER":"35.5241","PERIAPSIS":"538.272","GP_ID":"202312666","SEMIMAJOR_AXIS":"6917.955","MEAN_ANOMALY":"327.3130","ELEMENT_SET_NO":"999","REV_AT_EPOCH":"360","EPHEMERIS_TYPE":"0","TIME_SYSTEM":"UTC","RA_OF_ASC_NODE":"7.8465","OBJECT_TYPE":"PAYLOAD","INCLINATION":"53.2182","MEAN_MOTION":"15.08815647","DECAY_DATE":null,"NORAD_CAT_ID":"49729","CENTER_NAME":"EARTH","RCS_SIZE":"LARGE","APOAPSIS":"541.367","TLE_LINE1":"1 49729U 21115F   22119.91667824 -.00005218  00000-0 -31017-3 0  9992","MEAN_MOTION_DOT":"-0.00005218","OBJECT_ID":"2021-115F","COUNTRY_CODE":"US","ECCENTRICITY":"0.00022370","REF_FRAME":"TEME","EPOCH":"2022-04-29T22:00:00.999936","BSTAR":"-0.00031017000000","FILE":"3421985","PERIOD":"95.439","SITE":"AFETR","TLE_LINE2":"2 49729  53.2182   7.8465 0002237  35.5241 327.3130 15.08815647  3601","MEAN_MOTION_DDOT":"0.0000000000000"},{"OBJECT_TYPE":"PAYLOAD","RA_OF_ASC_NODE":"7.8421","EPHEMERIS_TYPE":"0","TIME_SYSTEM":"UTC","REV_AT_EPOCH":"356","ELEMENT_SET_NO":"999","MEAN_ANOMALY":"283.9319","GP_ID":"202312423","SEMIMAJOR_AXIS":"6917.924","PERIAPSIS":"538.345","ARG_OF_PERICENTER":"38.8878","CLASSIFICATION_TYPE":"U","LAUNCH_DATE":"2021-12-02","OBJECT_NAME":"STARLINK-3249","MEAN_ELEMENT_THEORY":"SGP4","MEAN_MOTION_DDOT":"0.0000000000000","PERIOD":"95.438","SITE":"AFETR","TLE_LINE2":"2 49730  53.2166   7.8421 0002087  38.8878 283.9319 15.08825746  3564","FILE":"3421985","BSTAR":"-0.00124110000000","EPOCH":"2022-04-29T22:00:00.999936","ECCENTRICITY":"0.00020870","REF_FRAME":"TEME","OBJECT_ID":"2021-115G","COUNTRY_CODE":"US","TLE_LINE1":"1 49730U 21115G   22119.91667824 -.00019979  00000-0 -12411-2 0  9999","MEAN_MOTION_DOT":"-0.00019979","APOAPSIS":"541.233","CENTER_NAME":"EARTH","RCS_SIZE":"LARGE","DECAY_DATE":null,"NORAD_CAT_ID":"49730","MEAN_MOTION":"15.08825746","INCLINATION":"53.2166"},{"NORAD_CAT_ID":"49731","DECAY_DATE":null,"INCLINATION":"53.2166","MEAN_MOTION":"15.08829731","MEAN_MOTION_DOT":"-0.00029402","TLE_LINE1":"1 49731U 21115H   22119.91667824 -.00029402  00000-0 -18373-2 0  9995","CENTER_NAME":"EARTH","RCS_SIZE":"LARGE","APOAPSIS":"541.142","REF_FRAME":"TEME","ECCENTRICITY":"0.00019740","EPOCH":"2022-04-29T22:00:00.999936","BSTAR":"-0.00183730000000","COUNTRY_CODE":"US","OBJECT_ID":"2021-115H","TLE_LINE2":"2 49731  53.2166   7.8509 0001974  39.2435 303.6000 15.08829731  3565","SITE":"AFETR","PERIOD":"95.438","MEAN_MOTION_DDOT":"0.0000000000000","FILE":"3421985","MEAN_ELEMENT_THEORY":"SGP4","OBJECT_NAME":"STARLINK-3228","LAUNCH_DATE":"2021-12-02","CLASSIFICATION_TYPE":"U","SEMIMAJOR_AXIS":"6917.912","GP_ID":"202311171","ARG_OF_PERICENTER":"39.2435","PERIAPSIS":"538.411","REV_AT_EPOCH":"356","EPHEMERIS_TYPE":"0","TIME_SYSTEM":"UTC","MEAN_ANOMALY":"303.6000","ELEMENT_SET_NO":"999","RA_OF_ASC_NODE":"7.8509","OBJECT_TYPE":"PAYLOAD"},{"NORAD_CAT_ID":"49732","DECAY_DATE":null,"MEAN_MOTION":"15.08817862","INCLINATION":"53.2131","TLE_LINE1":"1 49732U 21115J   22119.91667824  .00002302  00000-0  16275-3 0  9994","MEAN_MOTION_DOT":"0.00002302","APOAPSIS":"541.046","CENTER_NAME":"EARTH","RCS_SIZE":"LARGE","BSTAR":"0.00016275000000","EPOCH":"2022-04-29T22:00:00.999936","ECCENTRICITY":"0.00017820","REF_FRAME":"TEME","OBJECT_ID":"2021-115J","COUNTRY_CODE":"US","MEAN_MOTION_DDOT":"0.0000000000000","PERIOD":"95.439","SITE":"AFETR","TLE_LINE2":"2 49732  53.2131   7.8439 0001782  46.9227 215.9144 15.08817862  3567","FILE":"3421985","CLASSIFICATION_TYPE":"U","LAUNCH_DATE":"2021-12-02","OBJECT_NAME":"STARLINK-3246","MEAN_ELEMENT_THEORY":"SGP4","SEMIMAJOR_AXIS":"6917.948","GP_ID":"202311421","PERIAPSIS":"538.580","ARG_OF_PERICENTER":"46.9227","EPHEMERIS_TYPE":"0","TIME_SYSTEM":"UTC","REV_AT_EPOCH":"356","ELEMENT_SET_NO":"999","MEAN_ANOMALY":"215.9144","OBJECT_TYPE":"PAYLOAD","RA_OF_ASC_NODE":"7.8439"},{"MEAN_ANOMALY":"267.2325","ELEMENT_SET_NO":"999","REV_AT_EPOCH":"359","TIME_SYSTEM":"UTC","EPHEMERIS_TYPE":"0","OBJECT_TYPE":"PAYLOAD","RA_OF_ASC_NODE":"7.8476","OBJECT_NAME":"STARLINK-3252","LAUNCH_DATE":"2021-12-02","MEAN_ELEMENT_THEORY":"SGP4","CLASSIFICATION_TYPE":"U","ARG_OF_PERICENTER":"35.5998","PERIAPSIS":"538.459","SEMIMAJOR_AXIS":"6917.917","GP_ID":"202312173","OBJECT_ID":"2021-115K","COUNTRY_CODE":"US","ECCENTRICITY":"0.00019120","REF_FRAME":"TEME","EPOCH":"2022-04-29T22:00:00.999936","BSTAR":"-0.00181530000000","FILE":"3421985","PERIOD":"95.438","SITE":"AFETR","TLE_LINE2":"2 49733  53.2152   7.8476 0001912  35.5998 267.2325 15.08828122  3591","MEAN_MOTION_DDOT":"0.0000000000000","INCLINATION":"53.2152","MEAN_MOTION":"15.08828122","DECAY_DATE":null,"NORAD_CAT_ID":"49733","RCS_SIZE":"LARGE","CENTER_NAME":"EARTH","APOAPSIS":"541.104","TLE_LINE1":"1 49733U 21115K   22119.91667824 -.00029054  00000-0 -18153-2 0  9996","MEAN_MOTION_DOT":"-0.00029054"},{"OBJECT_TYPE":"PAYLOAD","RA_OF_ASC_NODE":"357.8312","REV_AT_EPOCH":"356","EPHEMERIS_TYPE":"0","TIME_SYSTEM":"UTC","MEAN_ANOMALY":"151.5983","ELEMENT_SET_NO":"999","GP_ID":"202312917","SEMIMAJOR_AXIS":"6917.964","ARG_OF_PERICENTER":"46.2294","PERIAPSIS":"538.324","MEAN_ELEMENT_THEORY":"SGP4","LAUNCH_DATE":"2021-12-02","OBJECT_NAME":"STARLINK-3238","CLASSIFICATION_TYPE":"U","TLE_LINE2":"2 49734  53.2196 357.8312 0002176  46.2294 151.5983 15.08812537  3563","SITE":"AFETR","PERIOD":"95.439","MEAN_MOTION_DDOT":"0.0000000000000","FILE":"3421985","REF_FRAME":"TEME","ECCENTRICITY":"0.00021760","EPOCH":"2022-04-29T22:00:00.999936","BSTAR":"0.00038551000000","COUNTRY_CODE":"US","OBJECT_ID":"2021-115L","MEAN_MOTION_DOT":"0.00005848","TLE_LINE1":"1 49734U 21115L   22119.91667824  .00005848  00000-0  38551-3 0  9995","RCS_SIZE":"LARGE","CENTER_NAME":"EARTH","APOAPSIS":"541.335","DECAY_DATE":null,"NORAD_CAT_ID":"49734","INCLINATION":"53.2196","MEAN_MOTION":"15.08812537"},{"RA_OF_ASC_NODE":"7.8417","OBJECT_TYPE":"PAYLOAD","MEAN_ANOMALY":"242.1973","ELEMENT_SET_NO":"999","REV_AT_EPOCH":"356","TIME_SYSTEM":"UTC","EPHEMERIS_TYPE":"0","ARG_OF_PERICENTER":"40.6320","PERIAPSIS":"538.301","GP_ID":"202311665","SEMIMAJOR_AXIS":"6917.897","MEAN_ELEMENT_THEORY":"SGP4","LAUNCH_DATE":"2021-12-02","OBJECT_NAME":"STARLINK-3113","CLASSIFICATION_TYPE":"U","FILE":"3421985","SITE":"AFETR","TLE_LINE2":"2 49735  53.2151   7.8417 0002111  40.6320 242.1973 15.08834684  3563","PERIOD":"95.438","MEAN_MOTION_DDOT":"0.0000000000000","COUNTRY_CODE":"US","OBJECT_ID":"2021-115M","REF_FRAME":"TEME","ECCENTRICITY":"0.00021110","BSTAR":"-0.00225690000000","EPOCH":"2022-04-29T22:00:00.999936","CENTER_NAME":"EARTH","RCS_SIZE":"LARGE","APOAPSIS":"541.222","MEAN_MOTION_DOT":"-0.00036023","TLE_LINE1":"1 49735U 21115M   22119.91667824 -.00036023  00000-0 -22569-2 0  9998","INCLINATION":"53.2151","MEAN_MOTION":"15.08834684","NORAD_CAT_ID":"49735","DECAY_DATE":null},{"ELEMENT_SET_NO":"999","MEAN_ANOMALY":"122.8076","EPHEMERIS_TYPE":"0","TIME_SYSTEM":"UTC","REV_AT_EPOCH":"356","RA_OF_ASC_NODE":"357.8302","OBJECT_TYPE":"PAYLOAD","CLASSIFICATION_TYPE":"U","MEAN_ELEMENT_THEORY":"SGP4","OBJECT_NAME":"STARLINK-3148","LAUNCH_DATE":"2021-12-02","PERIAPSIS":"538.129","ARG_OF_PERICENTER":"35.0426","GP_ID":"202311915","SEMIMAJOR_AXIS":"6917.922","COUNTRY_CODE":"US","OBJECT_ID":"2021-115N","EPOCH":"2022-04-29T22:00:00.999936","BSTAR":"-0.00252160000000","REF_FRAME":"TEME","ECCENTRICITY":"0.00023960","FILE":"3421985","MEAN_MOTION_DDOT":"0.0000000000000","SITE":"AFETR","TLE_LINE2":"2 49736  53.2191 357.8302 0002396  35.0426 122.8076 15.08826503  3568","PERIOD":"95.438","MEAN_MOTION":"15.08826503","INCLINATION":"53.2191","NORAD_CAT_ID":"49736","DECAY_DATE":null,"APOAPSIS":"541.444","CENTER_NAME":"EARTH","RCS_SIZE":"LARGE","MEAN_MOTION_DOT":"-0.00040183","TLE_LINE1":"1 49736U 21115N   22119.91667824 -.00040183  00000-0 -25216-2 0  9993"}];
